{
  "norad_id": 56564,
  "name": "BEIDOU-3 G4",
  "history": [
    {
      "epoch": "2026-03-13T04:10:32.176992",
      "apogee_km": 35797.614363164255,
      "perigee_km": 35775.28905673412,
      "latitude_deg": 0.3440954777315764,
      "longitude_deg": -146.89758112025447,
      "semi_major_axis_km": 42164.58870994919,
      "eccentricity": 0.00026474,
      "inclination_deg": 0.6336,
      "raan_deg": 312.1088,
      "arg_perigee_deg": 153.4351,
      "mean_anomaly_deg": 287.9442,
      "mean_motion_rev_day": 1.00272296
    }
  ]
}